{
  "type": "FeatureCollection",
  "features": [
    {
      "type": "Feature",
      "properties": {
        "norad_id": 34492,
        "name": "IRIDIUM 33 DEB",
        "group": "iridium-33-debris",
        "lat": 61.7760353550895,
        "lon": -19.66135085407043,
        "alt_km": 933.0641749145634,
        "timestamp": "2025-12-14T22:38:41.142397+00:00",
        "meta_object_name": "IRIDIUM 33 DEB",
        "meta_object_id": "1997-051GH",
        "meta_epoch": "2025-12-14T05:35:02.651712",
        "meta_mean_motion": 14.25773186,
        "meta_eccentricity": 0.01889467,
        "meta_inclination": 86.4719,
        "meta_ra_of_asc_node": 334.0254,
        "meta_arg_of_pericenter": 233.3245,
        "meta_mean_anomaly": 142.6912,
        "meta_ephemeris_type": 0,
        "meta_classification_type": "U",
        "meta_norad_cat_id": 34492,
        "meta_element_set_no": 999,
        "meta_rev_at_epoch": 85080,
        "meta_bstar": 0.00441868,
        "meta_mean_motion_dot": 0.00012689,
        "meta_mean_motion_ddot": 0,
        "tle_line1": "1 34492U 97051GH  25348.23266958  .00012689  00000+0  44187-2 0  9998",
        "tle_line2": "2 34492  86.4719 334.0254 0188946 233.3245 142.6912 14.25773186850808"
      },
      "geometry": {
        "type": "Point",
        "coordinates": [
          -19.66135085407043,
          61.7760353550895
        ]
      }
    },
    {
      "type": "Feature",
      "properties": {
        "norad_id": 34497,
        "name": "IRIDIUM 33 DEB",
        "group": "iridium-33-debris",
        "lat": -45.99686211099633,
        "lon": 47.5955067361443,
        "alt_km": 753.4712401443167,
        "timestamp": "2025-12-14T22:38:41.142421+00:00",
        "meta_object_name": "IRIDIUM 33 DEB",
        "meta_object_id": "1997-051GN",
        "meta_epoch": "2025-12-14T04:36:28.717920",
        "meta_mean_motion": 14.27459582,
        "meta_eccentricity": 0.00786328,
        "meta_inclination": 86.278,
        "meta_ra_of_asc_node": 51.7811,
        "meta_arg_of_pericenter": 334.8541,
        "meta_mean_anomaly": 79.7978,
        "meta_ephemeris_type": 0,
        "meta_classification_type": "U",
        "meta_norad_cat_id": 34497,
        "meta_element_set_no": 999,
        "meta_rev_at_epoch": 86904,
        "meta_bstar": 0.00073972606,
        "meta_mean_motion_dot": 1.894e-05,
        "meta_mean_motion_ddot": 0,
        "tle_line1": "1 34497U 97051GN  25348.19199905  .00001894  00000+0  73973-3 0  9997",
        "tle_line2": "2 34497  86.2780  51.7811 0078632 334.8541  79.7978 14.27459582869048"
      },
      "geometry": {
        "type": "Point",
        "coordinates": [
          47.5955067361443,
          -45.99686211099633
        ]
      }
    },
    {
      "type": "Feature",
      "properties": {
        "norad_id": 34508,
        "name": "IRIDIUM 33 DEB",
        "group": "iridium-33-debris",
        "lat": -19.782439252587768,
        "lon": -76.98301095515377,
        "alt_km": 729.5012589782455,
        "timestamp": "2025-12-14T22:38:41.142434+00:00",
        "meta_object_name": "IRIDIUM 33 DEB",
        "meta_object_id": "1997-051GZ",
        "meta_epoch": "2025-12-14T08:21:56.475648",
        "meta_mean_motion": 14.3844617,
        "meta_eccentricity": 0.0066199,
        "meta_inclination": 86.3696,
        "meta_ra_of_asc_node": 101.9608,
        "meta_arg_of_pericenter": 167.7795,
        "meta_mean_anomaly": 192.5028,
        "meta_ephemeris_type": 0,
        "meta_classification_type": "U",
        "meta_norad_cat_id": 34508,
        "meta_element_set_no": 999,
        "meta_rev_at_epoch": 87332,
        "meta_bstar": 0.001521523,
        "meta_mean_motion_dot": 4.781e-05,
        "meta_mean_motion_ddot": 0,
        "tle_line1": "1 34508U 97051GZ  25348.34857032  .00004781  00000+0  15215-2 0  9991",
        "tle_line2": "2 34508  86.3696 101.9608 0066199 167.7795 192.5028 14.38446170873326"
      },
      "geometry": {
        "type": "Point",
        "coordinates": [
          -76.98301095515377,
          -19.782439252587768
        ]
      }
    },
    {
      "type": "Feature",
      "properties": {
        "norad_id": 34521,
        "name": "IRIDIUM 33 DEB",
        "group": "iridium-33-debris",
        "lat": -34.65780063613287,
        "lon": -147.91362207982462,
        "alt_km": 687.4013707229078,
        "timestamp": "2025-12-14T22:38:41.142446+00:00",
        "meta_object_name": "IRIDIUM 33 DEB",
        "meta_object_id": "1997-051HN",
        "meta_epoch": "2025-12-14T03:36:53.409888",
        "meta_mean_motion": 14.63384797,
        "meta_eccentricity": 0.00017014,
        "meta_inclination": 86.3804,
        "meta_ra_of_asc_node": 29.9271,
        "meta_arg_of_pericenter": 206.4269,
        "meta_mean_anomaly": 153.6857,
        "meta_ephemeris_type": 0,
        "meta_classification_type": "U",
        "meta_norad_cat_id": 34521,
        "meta_element_set_no": 999,
        "meta_rev_at_epoch": 88493,
        "meta_bstar": 0.00094367192,
        "meta_mean_motion_dot": 4.898e-05,
        "meta_mean_motion_ddot": 0,
        "tle_line1": "1 34521U 97051HN  25348.15061817  .00004898  00000+0  94367-3 0  9998",
        "tle_line2": "2 34521  86.3804  29.9271 0001701 206.4269 153.6857 14.63384797884933"
      },
      "geometry": {
        "type": "Point",
        "coordinates": [
          -147.91362207982462,
          -34.65780063613287
        ]
      }
    },
    {
      "type": "Feature",
      "properties": {
        "norad_id": 34525,
        "name": "IRIDIUM 33 DEB",
        "group": "iridium-33-debris",
        "lat": -51.4631576825624,
        "lon": -129.52886852262455,
        "alt_km": 759.6501772961628,
        "timestamp": "2025-12-14T22:38:41.142457+00:00",
        "meta_object_name": "IRIDIUM 33 DEB",
        "meta_object_id": "1997-051HS",
        "meta_epoch": "2025-12-14T05:15:43.852320",
        "meta_mean_motion": 14.42909796,
        "meta_eccentricity": 0.00065975,
        "meta_inclination": 86.3729,
        "meta_ra_of_asc_node": 46.2124,
        "meta_arg_of_pericenter": 91.4794,
        "meta_mean_anomaly": 340.1709,
        "meta_ephemeris_type": 0,
        "meta_classification_type": "U",
        "meta_norad_cat_id": 34525,
        "meta_element_set_no": 999,
        "meta_rev_at_epoch": 88109,
        "meta_bstar": 0.00046290331,
        "meta_mean_motion_dot": 1.566e-05,
        "meta_mean_motion_ddot": 0,
        "tle_line1": "1 34525U 97051HS  25348.21925755  .00001566  00000+0  46290-3 0  9990",
        "tle_line2": "2 34525  86.3729  46.2124 0006597  91.4794 340.1709 14.42909796881097"
      },
      "geometry": {
        "type": "Point",
        "coordinates": [
          -129.52886852262455,
          -51.4631576825624
        ]
      }
    },
    {
      "type": "Feature",
      "properties": {
        "norad_id": 34529,
        "name": "IRIDIUM 33 DEB",
        "group": "iridium-33-debris",
        "lat": 71.54265665396358,
        "lon": -156.5098346454309,
        "alt_km": 747.958821959227,
        "timestamp": "2025-12-14T22:38:41.142468+00:00",
        "meta_object_name": "IRIDIUM 33 DEB",
        "meta_object_id": "1997-051HW",
        "meta_epoch": "2025-12-14T03:48:27.167328",
        "meta_mean_motion": 14.40617171,
        "meta_eccentricity": 0.00049833,
        "meta_inclination": 86.3641,
        "meta_ra_of_asc_node": 34.807,
        "meta_arg_of_pericenter": 172.3273,
        "meta_mean_anomaly": 187.8004,
        "meta_ephemeris_type": 0,
        "meta_classification_type": "U",
        "meta_norad_cat_id": 34529,
        "meta_element_set_no": 999,
        "meta_rev_at_epoch": 88162,
        "meta_bstar": 0.00014944664,
        "meta_mean_motion_dot": 4.96e-06,
        "meta_mean_motion_ddot": 0,
        "tle_line1": "1 34529U 97051HW  25348.15864777  .00000496  00000+0  14945-3 0  9996",
        "tle_line2": "2 34529  86.3641  34.8070 0004983 172.3273 187.8004 14.40617171881629"
      },
      "geometry": {
        "type": "Point",
        "coordinates": [
          -156.5098346454309,
          71.54265665396358
        ]
      }
    },
    {
      "type": "Feature",
      "properties": {
        "norad_id": 34538,
        "name": "IRIDIUM 33 DEB",
        "group": "iridium-33-debris",
        "lat": -38.62084889950841,
        "lon": 1.6097415372528388,
        "alt_km": 732.9473432604318,
        "timestamp": "2025-12-14T22:38:41.142478+00:00",
        "meta_object_name": "IRIDIUM 33 DEB",
        "meta_object_id": "1997-051JF",
        "meta_epoch": "2025-12-14T06:47:29.485824",
        "meta_mean_motion": 14.42660528,
        "meta_eccentricity": 0.00326715,
        "meta_inclination": 86.2774,
        "meta_ra_of_asc_node": 4.8803,
        "meta_arg_of_pericenter": 322.7604,
        "meta_mean_anomaly": 170.167,
        "meta_ephemeris_type": 0,
        "meta_classification_type": "U",
        "meta_norad_cat_id": 34538,
        "meta_element_set_no": 999,
        "meta_rev_at_epoch": 87778,
        "meta_bstar": 0.0010767413,
        "meta_mean_motion_dot": 3.621e-05,
        "meta_mean_motion_ddot": 0,
        "tle_line1": "1 34538U 97051JF  25348.28298016  .00003621  00000+0  10767-2 0  9997",
        "tle_line2": "2 34538  86.2774   4.8803 0032671 322.7604 170.1670 14.42660528877782"
      },
      "geometry": {
        "type": "Point",
        "coordinates": [
          1.6097415372528388,
          -38.62084889950841
        ]
      }
    }
  ]
}